{
  "type": "FeatureCollection",
  "features": [
    {
      "type": "Feature",
      "properties": {
        "norad_id": 34079,
        "name": "IRIDIUM 33 DEB",
        "group": "iridium-33-debris",
        "lat": -82.95634983203627,
        "lon": -22.119136176135235,
        "alt_km": 625.8552367538441,
        "timestamp": "2025-12-12T14:39:18.318230+00:00",
        "meta_object_name": "IRIDIUM 33 DEB",
        "meta_object_id": "1997-051CN",
        "meta_epoch": "2025-12-12T02:19:21.891360",
        "meta_mean_motion": 14.83502874,
        "meta_eccentricity": 0.00056447,
        "meta_inclination": 86.3781,
        "meta_ra_of_asc_node": 8.9545,
        "meta_arg_of_pericenter": 10.4364,
        "meta_mean_anomaly": 43.223,
        "meta_ephemeris_type": 0,
        "meta_classification_type": "U",
        "meta_norad_cat_id": 34079,
        "meta_element_set_no": 999,
        "meta_rev_at_epoch": 88968,
        "meta_bstar": 0.0022555741,
        "meta_mean_motion_dot": 0.00018607,
        "meta_mean_motion_ddot": 0,
        "tle_line1": "1 34079U 97051CN  25346.09678115  .00018607  00000+0  22556-2 0  9995",
        "tle_line2": "2 34079  86.3781   8.9545 0005644  10.4364  43.2230 14.83502874889681"
      },
      "geometry": {
        "type": "Point",
        "coordinates": [
          -22.119136176135235,
          -82.95634983203627
        ]
      }
    },
    {
      "type": "Feature",
      "properties": {
        "norad_id": 34088,
        "name": "IRIDIUM 33 DEB",
        "group": "iridium-33-debris",
        "lat": 3.632353458526151,
        "lon": 31.01318700041354,
        "alt_km": 600.1528295572589,
        "timestamp": "2025-12-12T14:39:18.318239+00:00",
        "meta_object_name": "IRIDIUM 33 DEB",
        "meta_object_id": "1997-051CX",
        "meta_epoch": "2025-12-12T03:36:20.386944",
        "meta_mean_motion": 14.91344676,
        "meta_eccentricity": 0.00055799,
        "meta_inclination": 86.3851,
        "meta_ra_of_asc_node": 30.9947,
        "meta_arg_of_pericenter": 178.9664,
        "meta_mean_anomaly": 234.6455,
        "meta_ephemeris_type": 0,
        "meta_classification_type": "U",
        "meta_norad_cat_id": 34088,
        "meta_element_set_no": 999,
        "meta_rev_at_epoch": 88733,
        "meta_bstar": 0.0035088901,
        "meta_mean_motion_dot": 0.00035146,
        "meta_mean_motion_ddot": 0,
        "tle_line1": "1 34088U 97051CX  25346.15023596  .00035146  00000+0  35089-2 0  9991",
        "tle_line2": "2 34088  86.3851  30.9947 0005579 178.9664 234.6455 14.91344676887338"
      },
      "geometry": {
        "type": "Point",
        "coordinates": [
          31.01318700041354,
          3.632353458526151
        ]
      }
    },
    {
      "type": "Feature",
      "properties": {
        "norad_id": 34091,
        "name": "IRIDIUM 33 DEB",
        "group": "iridium-33-debris",
        "lat": -13.396949156555566,
        "lon": -112.2343111329521,
        "alt_km": 632.5243896734901,
        "timestamp": "2025-12-12T14:39:18.318248+00:00",
        "meta_object_name": "IRIDIUM 33 DEB",
        "meta_object_id": "1997-051DA",
        "meta_epoch": "2025-12-12T05:40:42.487968",
        "meta_mean_motion": 14.81773755,
        "meta_eccentricity": 0.00337743,
        "meta_inclination": 86.3416,
        "meta_ra_of_asc_node": 67.0638,
        "meta_arg_of_pericenter": 295.1725,
        "meta_mean_anomaly": 64.5996,
        "meta_ephemeris_type": 0,
        "meta_classification_type": "U",
        "meta_norad_cat_id": 34091,
        "meta_element_set_no": 999,
        "meta_rev_at_epoch": 87859,
        "meta_bstar": 0.007483738,
        "meta_mean_motion_dot": 0.00060085,
        "meta_mean_motion_ddot": 0,
        "tle_line1": "1 34091U 97051DA  25346.23660287  .00060085  00000+0  74837-2 0  9992",
        "tle_line2": "2 34091  86.3416  67.0638 0033774 295.1725  64.5996 14.81773755878596"
      },
      "geometry": {
        "type": "Point",
        "coordinates": [
          -112.2343111329521,
          -13.396949156555566
        ]
      }
    },
    {
      "type": "Feature",
      "properties": {
        "norad_id": 34097,
        "name": "IRIDIUM 33 DEB",
        "group": "iridium-33-debris",
        "lat": 74.72241345970325,
        "lon": 167.38522413236342,
        "alt_km": 780.7815788251974,
        "timestamp": "2025-12-12T14:39:18.318257+00:00",
        "meta_object_name": "IRIDIUM 33 DEB",
        "meta_object_id": "1997-051DG",
        "meta_epoch": "2025-12-12T00:46:57.891936",
        "meta_mean_motion": 14.3476745,
        "meta_eccentricity": 0.0082672,
        "meta_inclination": 86.2008,
        "meta_ra_of_asc_node": 1.7198,
        "meta_arg_of_pericenter": 4.5012,
        "meta_mean_anomaly": 355.6908,
        "meta_ephemeris_type": 0,
        "meta_classification_type": "U",
        "meta_norad_cat_id": 34097,
        "meta_element_set_no": 999,
        "meta_rev_at_epoch": 87109,
        "meta_bstar": 0.002168,
        "meta_mean_motion_dot": 6.405e-05,
        "meta_mean_motion_ddot": 0,
        "tle_line1": "1 34097U 97051DG  25346.03261449  .00006405  00000+0  21680-2 0  9997",
        "tle_line2": "2 34097  86.2008   1.7198 0082672   4.5012 355.6908 14.34767450871094"
      },
      "geometry": {
        "type": "Point",
        "coordinates": [
          167.38522413236342,
          74.72241345970325
        ]
      }
    },
    {
      "type": "Feature",
      "properties": {
        "norad_id": 34145,
        "name": "IRIDIUM 33 DEB",
        "group": "iridium-33-debris",
        "lat": 8.867627665065847,
        "lon": -26.823595675778986,
        "alt_km": 749.2162880590531,
        "timestamp": "2025-12-12T14:39:18.318266+00:00",
        "meta_object_name": "IRIDIUM 33 DEB",
        "meta_object_id": "1997-051DY",
        "meta_epoch": "2025-12-11T23:37:41.599200",
        "meta_mean_motion": 14.42279969,
        "meta_eccentricity": 0.0055694,
        "meta_inclination": 86.2122,
        "meta_ra_of_asc_node": 332.8629,
        "meta_arg_of_pericenter": 96.2305,
        "meta_mean_anomaly": 264.5244,
        "meta_ephemeris_type": 0,
        "meta_classification_type": "U",
        "meta_norad_cat_id": 34145,
        "meta_element_set_no": 999,
        "meta_rev_at_epoch": 87627,
        "meta_bstar": 0.0017354,
        "meta_mean_motion_dot": 5.852e-05,
        "meta_mean_motion_ddot": 0,
        "tle_line1": "1 34145U 97051DY  25345.98450925  .00005852  00000+0  17354-2 0  9991",
        "tle_line2": "2 34145  86.2122 332.8629 0055694  96.2305 264.5244 14.42279969876277"
      },
      "geometry": {
        "type": "Point",
        "coordinates": [
          -26.823595675778986,
          8.867627665065847
        ]
      }
    },
    {
      "type": "Feature",
      "properties": {
        "norad_id": 34146,
        "name": "IRIDIUM 33 DEB",
        "group": "iridium-33-debris",
        "lat": 4.208336054135209,
        "lon": -9.86830048837432,
        "alt_km": 745.5145683929231,
        "timestamp": "2025-12-12T14:39:18.318275+00:00",
        "meta_object_name": "IRIDIUM 33 DEB",
        "meta_object_id": "1997-051DZ",
        "meta_epoch": "2025-12-11T23:59:18.754368",
        "meta_mean_motion": 14.49040748,
        "meta_eccentricity": 0.0025427,
        "meta_inclination": 86.284,
        "meta_ra_of_asc_node": 350.1275,
        "meta_arg_of_pericenter": 224.2485,
        "meta_mean_anomaly": 194.0777,
        "meta_ephemeris_type": 0,
        "meta_classification_type": "U",
        "meta_norad_cat_id": 34146,
        "meta_element_set_no": 999,
        "meta_rev_at_epoch": 88096,
        "meta_bstar": 0.0014807,
        "meta_mean_motion_dot": 5.661e-05,
        "meta_mean_motion_ddot": 0,
        "tle_line1": "1 34146U 97051DZ  25345.99952262  .00005661  00000+0  14807-2 0  9992",
        "tle_line2": "2 34146  86.2840 350.1275 0025427 224.2485 194.0777 14.49040748880965"
      },
      "geometry": {
        "type": "Point",
        "coordinates": [
          -9.86830048837432,
          4.208336054135209
        ]
      }
    },
    {
      "type": "Feature",
      "properties": {
        "norad_id": 34159,
        "name": "IRIDIUM 33 DEB",
        "group": "iridium-33-debris",
        "lat": 82.98975630922995,
        "lon": 79.55910831425771,
        "alt_km": 773.0136307398498,
        "timestamp": "2025-12-12T14:39:18.318284+00:00",
        "meta_object_name": "IRIDIUM 33 DEB",
        "meta_object_id": "1997-051EN",
        "meta_epoch": "2025-12-12T04:14:54.367296",
        "meta_mean_motion": 14.38492012,
        "meta_eccentricity": 0.0026045,
        "meta_inclination": 86.351,
        "meta_ra_of_asc_node": 48.4813,
        "meta_arg_of_pericenter": 289.8308,
        "meta_mean_anomaly": 70.0083,
        "meta_ephemeris_type": 0,
        "meta_classification_type": "U",
        "meta_norad_cat_id": 34159,
        "meta_element_set_no": 999,
        "meta_rev_at_epoch": 87951,
        "meta_bstar": 0.00065904202,
        "meta_mean_motion_dot": 2.039e-05,
        "meta_mean_motion_ddot": 0,
        "tle_line1": "1 34159U 97051EN  25346.17701814  .00002039  00000+0  65904-3 0  9993",
        "tle_line2": "2 34159  86.3510  48.4813 0026045 289.8308  70.0083 14.38492012879512"
      },
      "geometry": {
        "type": "Point",
        "coordinates": [
          79.55910831425771,
          82.98975630922995
        ]
      }
    }
  ]
}